1   670U 63038B   22002.46979848  .00000043  00000-0  57927-4 0  9995
2   670  90.0249 333.8319 0041894  13.3106 346.9137 13.44364116856206
1 00670U 63038B   22002.91636813  .00000046  00000-0  63185-4 0  9993
2 00670  90.0249 333.8330 0041858  12.0499 348.1640 13.44364165855655
1 00670U 63038B   22003.36293779  .00000044  00000-0  59575-4 0  9999
2 00670  90.0250 333.8340 0041815  10.7873 349.4162 13.44364172855710
1 00670U 63038B   22003.80950735  .00000048  00000-0  65850-4 0  9997
2 00670  90.0250 333.8351 0041776   9.5248 350.6682 13.44364238855770
1 00670U 63038B   22004.47936170  .00000042  00000-0  57066-4 0  9992
2 00670  90.0252 333.8367 0041715   7.6302 352.5471 13.44364284855860
1   670U 63038B   22004.47936170  .00000042  00000-0  57066-4 0  9992
2   670  90.0252 333.8367 0041715   7.6302 352.5471 13.44364284856478
1 00670U 63038B   22004.92593128  .00000042  00000-0  55494-4 0  9997
2 00670  90.0252 333.8377 0041652   6.3800 353.7869 13.44364299855927
1 00670U 63038B   22005.44692918  .00000041  00000-0  54381-4 0  9995
2 00670  90.0253 333.8390 0041613   4.8891 355.2654 13.44364296855996
1 00670U 63038B   22005.89349874  .00000045  00000-0  61645-4 0  9999
2 00670  90.0254 333.8400 0041573   3.6180 356.5260 13.44364330856056
1 00670U 63038B   22006.48892479  .00000044  00000-0  60583-4 0  9998
2 00670  90.0254 333.8414 0041516   1.9265 358.2035 13.44364366856130
1   670U 63038B   22006.48892479  .00000044  00000-0  60583-4 0  9998
2   670  90.0254 333.8414 0041516   1.9265 358.2035 13.44364366856747
1 00670U 63038B   22006.86106605  .00000046  00000-0  62892-4 0  9996
2 00670  90.0255 333.8423 0041479   0.8652 359.2560 13.44364400856185
1 00670U 63038B   22007.45649206  .00000053  00000-0  74504-4 0  9992
2 00670  90.0256 333.8437 0041420 359.1724   0.9348 13.44364480856268
1 00670U 63038B   22007.90306158  .00000057  00000-0  82151-4 0  9999
2 00670  90.0257 333.8448 0041381 357.8964   2.2003 13.44364520856323
1 00670U 63038B   22008.42405933  .00000063  00000-0  92694-4 0  9998
2 00670  90.0257 333.8461 0041330 356.4047   3.6798 13.44364581856399
1   670U 63038B   22008.79620056  .00000066  00000-0  97485-4 0  9999
2   670  90.0257 333.8470 0041297 355.3425   4.7332 13.44364622857055
1 00670U 63038B   22008.87062878  .00000066  00000-0  97257-4 0  9997
2 00670  90.0257 333.8472 0041290 355.1271   4.9468 13.44364640856452
1 00670U 63038B   22009.46605464  .00000068  00000-0  10147-3 0  9991
2 00670  90.0258 333.8486 0041233 353.4147   6.6453 13.44364743856534
1 00670U 63038B   22009.91262410  .00000068  00000-0  10031-3 0  9993
2 00670  90.0259 333.8497 0041192 352.1331   7.9166 13.44364781856595
1 00670U 63038B   22010.58247823  .00000073  00000-0  11017-3 0  9990
2 00670  90.0260 333.8514 0041126 350.2026   9.8315 13.44364866856685
1   670U 63038B   22010.80576295  .00000074  00000-0  11111-3 0  9999
2   670  90.0260 333.8519 0041106 349.5597  10.4692 13.44364893857320
1 00670U 63038B   22010.88019117  .00000073  00000-0  10987-3 0  9991
2 00670  90.0260 333.8521 0041099 349.3454  10.6819 13.44364907856726
1 00670U 63038B   22011.40118884  .00000063  00000-0  93274-4 0  9991
2 00670  90.0261 333.8534 0041050 347.8404  12.1749 13.44364919856795
1 00670U 63038B   22011.92218648  .00000055  00000-0  78861-4 0  9993
2 00670  90.0261 333.8547 0040999 346.3394  13.6640 13.44364945856865
1 00670U 63038B   22012.59204056  .00000057  00000-0  81862-4 0  9992
2 00670  90.0262 333.8564 0040933 344.4106  15.5778 13.44365036856958
1   670U 63038B   22012.88975352  .00000056  00000-0  80546-4 0  9995
2   670  90.0262 333.8571 0040908 343.5509  16.4308 13.44365066857600
1 00670U 63038B   22013.41075116  .00000055  00000-0  78256-4 0  9998
2 00670  90.0263 333.8584 0040858 342.0384  17.9318 13.44365109857069
1 00670U 63038B   22013.93174879  .00000048  00000-0  66975-4 0  9998
2 00670  90.0263 333.8598 0040813 340.5302  19.4284 13.44365141857131
1 00670U 63038B   22014.45274640  .00000048  00000-0  66647-4 0  9999
2 00670  90.0264 333.8611 0040767 339.0160  20.9313 13.44365215857201
1 00670U 63038B   22014.89931571  .00000052  00000-0  74608-4 0  9991
2 00670  90.0264 333.8622 0040727 337.6970  22.2405 13.44365308857268
1   670U 63038B   22014.97374400  .00000051  00000-0  72111-4 0  9998
2   670  90.0265 333.8624 0040721 337.4928  22.4432 13.44365296857882
1 00670U 63038B   22015.56916993  .00000053  00000-0  74835-4 0  9990
2 00670  90.0265 333.8639 0040666 335.7567  24.1666 13.44365338857353
1 00670U 63038B   22015.86688291  .00000053  00000-0  76135-4 0  9995
2 00670  90.0266 333.8646 0040642 334.8951  25.0220 13.44365371857390
1 00670U 63038B   22016.38788063  .00000052  00000-0  73419-4 0  9992
2 00670  90.0267 333.8660 0040593 333.3879  26.5185 13.44365413857466
1 00670U 63038B   22016.90887835  .00000046  00000-0  63810-4 0  9994
2 00670  90.0267 333.8673 0040547 331.8703  28.0254 13.44365435857534
1   670U 63038B   22017.13216312  .00000044  00000-0  59709-4 0  9996
2   670  90.0268 333.8679 0040530 331.2259  28.6653 13.44365424858171
1 00670U 63038B   22017.57873265  .00000045  00000-0  61248-4 0  9992
2 00670  90.0269 333.8690 0040492 329.9363  29.9460 13.44365462857623
1 00670U 63038B   22017.87644562  .00000051  00000-0  72990-4 0  9994
2 00670  90.0269 333.8698 0040466 329.0572  30.8191 13.44365530857667
1 00670U 63038B   22018.39744341  .00000053  00000-0  75087-4 0  9990
2 00670  90.0269 333.8712 0040421 327.5414  32.3248 13.44365564857738
1 00670U 63038B   22018.91844113  .00000057  00000-0  82822-4 0  9995
2 00670  90.0270 333.8725 0040381 326.0066  33.8496 13.44365646857806
1   670U 63038B   22019.43943889  .00000061  00000-0  88592-4 0  9998
2   670  90.0271 333.8739 0040342 324.4746  35.3716 13.44365726858482
1 00670U 63038B   22019.58829542  .00000061  00000-0  89168-4 0  9993
2 00670  90.0272 333.8742 0040329 324.0422  35.8013 13.44365730857893
1 00670U 63038B   22019.88600852  .00000059  00000-0  85955-4 0  9994
2 00670  90.0272 333.8750 0040305 323.1759  36.6622 13.44365741857931
1 00670U 63038B   22020.55586297  .00000061  00000-0  89244-4 0  9994
2 00670  90.0273 333.8768 0040251 321.2190  38.6070 13.44365770858021
1 00670U 63038B   22020.92800432  .00000063  00000-0  91963-4 0  9998
2 00670  90.0273 333.8778 0040222 320.1278  39.6916 13.44365813858078
1 00670U 63038B   22021.59785877  .00000063  00000-0  93142-4 0  9998
2 00670  90.0274 333.8795 0040165 318.1605  41.6474 13.44365877858167
1   670U 63038B   22021.82114359  .00000063  00000-0  93426-4 0  9990
2   670  90.0274 333.8801 0040151 317.5042  42.2999 13.44365912858808
1 00670U 63038B   22021.89557183  .00000064  00000-0  93880-4 0  9998
2 00670  90.0274 333.8803 0040146 317.2825  42.5204 13.44365930858206
1 00670U 63038B   22022.56542632  .00000065  00000-0  96692-4 0  9991
2 00670  90.0275 333.8820 0040095 315.3034  44.4884 13.44365997858297
1 00670U 63038B   22022.86313949  .00000065  00000-0  95776-4 0  9993
2 00670  90.0275 333.8828 0040075 314.4320  45.3551 13.44366017858331
1 00670U 63038B   22023.38413743  .00000070  00000-0  10537-3 0  9991
2 00670  90.0275 333.8842 0040042 312.8890  46.8898 13.44366101858407
1   670U 63038B   22023.83070717  .00000068  00000-0  10117-3 0  9992
2   670  90.0275 333.8854 0040009 311.5778  48.1942 13.44366133859078
1 00670U 63038B   22023.90513544  .00000066  00000-0  98504-4 0  9995
2 00670  90.0276 333.8856 0040008 311.3557  48.4151 13.44366141858470
1 00670U 63038B   22024.42613345  .00000065  00000-0  96595-4 0  9990
2 00670  90.0276 333.8869 0039965 309.8236  49.9397 13.44366212858545
1 00670U 63038B   22024.87270320  .00000064  00000-0  94204-4 0  9995
2 00670  90.0277 333.8881 0039936 308.5056  51.2513 13.44366263858603
1 00670U 63038B   22025.54255790  .00000065  00000-0  97084-4 0  9994
2 00670  90.0277 333.8899 0039888 306.5208  53.2269 13.44366332858691
1 00670U 63038B   22025.91469936  .00000069  00000-0  10388-3 0  9999
2 00670  90.0278 333.8909 0039866 305.4155  54.3272 13.44366416858744
1   670U 63038B   22026.13798427  .00000069  00000-0  10235-3 0  9995
2   670  90.0278 333.8915 0039854 304.7581  54.9817 13.44366428859388
1 00670U 63038B   22026.58455409  .00000056  00000-0  81676-4 0  9998
2 00670  90.0278 333.8927 0039829 303.4267  56.3074 13.44366442858836
1 00670U 63038B   22026.88226733  .00000052  00000-0  74029-4 0  9997
2 00670  90.0279 333.8935 0039813 302.5462  57.1842 13.44366470858873
1 00670U 63038B   22027.55212216  .00000048  00000-0  67682-4 0  9995
2 00670  90.0279 333.8953 0039771 300.5618  59.1608 13.44366528858963
1 00670U 63038B   22027.84983542  .00000052  00000-0  74394-4 0  9997
2 00670  90.0280 333.8961 0039758 299.6753  60.0439 13.44366591859006
1 00670U 63038B   22028.29640537  .00000051  00000-0  71650-4 0  9992
2 00670  90.0280 333.8973 0039734 298.3419  61.3724 13.44366621859069
1   670U 63038B   22028.29640537  .00000051  00000-0  71650-4 0  9992
2   670  90.0280 333.8973 0039734 298.3419  61.3724 13.44366621859676
1 00670U 63038B   22028.89183199  .00000042  00000-0  57813-4 0  9999
2 00670  90.0280 333.8989 0039702 296.5739  63.1342 13.44366655859148
1 00670U 63038B   22029.41283030  .00000040  00000-0  53339-4 0  9990
2 00670  90.0281 333.9003 0039681 295.0187  64.6842 13.44366715859210
1 00670U 63038B   22029.85940037  .00000042  00000-0  57313-4 0  9993
2 00670  90.0281 333.9016 0039661 293.6899  66.0089 13.44366770859272
1   670U 63038B   22030.38039882  .00000045  00000-0  62370-4 0  9992
2   670  90.0282 333.9030 0039636 292.1393  67.5549 13.44366823859955
1 00670U 63038B   22030.52925553  .00000048  00000-0  66537-4 0  9999
2 00670  90.0282 333.9034 0039630 291.6930  68.0000 13.44366836859361
1 00670U 63038B   22030.90139730  .00000049  00000-0  69120-4 0  9997
2 00670  90.0282 333.9044 0039615 290.5820  69.1080 13.44366878859413
1 00670U 63038B   22031.34796745  .00000056  00000-0  81736-4 0  9996
2 00670  90.0283 333.9056 0039597 289.2494  70.4372 13.44366965859470
